{
  "type": "FeatureCollection",
  "features": [
    {
      "type": "Feature",
      "properties": {
        "norad_id": 43602,
        "name": "BEIDOU-3 M12 (C26)",
        "group": "beidou",
        "lat": 12.833969851054775,
        "lon": -163.63198163012117,
        "alt_km": 21503.76694370646,
        "timestamp": "2025-12-26T13:39:19.241236+00:00",
        "meta_object_name": "BEIDOU-3 M12 (C26)",
        "meta_object_id": "2018-067A",
        "meta_epoch": "2025-12-26T00:11:59.699904",
        "meta_mean_motion": 1.86227807,
        "meta_eccentricity": 0.00092337,
        "meta_inclination": 54.1838,
        "meta_ra_of_asc_node": 186.9129,
        "meta_arg_of_pericenter": 41.9215,
        "meta_mean_anomaly": 318.181,
        "meta_ephemeris_type": 0,
        "meta_classification_type": "U",
        "meta_norad_cat_id": 43602,
        "meta_element_set_no": 999,
        "meta_rev_at_epoch": 4989,
        "meta_bstar": 0,
        "meta_mean_motion_dot": 1.18e-06,
        "meta_mean_motion_ddot": 0,
        "tle_line1": "1 43602U 18067A   25360.00832986  .00000118  00000+0  00000+0 0  9997",
        "tle_line2": "2 43602  54.1838 186.9129 0009233  41.9215 318.1810  1.86227807 49894"
      },
      "geometry": {
        "type": "Point",
        "coordinates": [
          -163.63198163012117,
          12.833969851054775
        ]
      }
    },
    {
      "type": "Feature",
      "properties": {
        "norad_id": 43603,
        "name": "BEIDOU-3 M11 (C25)",
        "group": "beidou",
        "lat": -51.30203962346841,
        "lon": 122.45858375349725,
        "alt_km": 21539.97260397426,
        "timestamp": "2025-12-26T13:39:19.241247+00:00",
        "meta_object_name": "BEIDOU-3 M11 (C25)",
        "meta_object_id": "2018-067B",
        "meta_epoch": "2025-12-24T12:46:04.310976",
        "meta_mean_motion": 1.86227356,
        "meta_eccentricity": 0.00056287,
        "meta_inclination": 54.181,
        "meta_ra_of_asc_node": 186.927,
        "meta_arg_of_pericenter": 37.873,
        "meta_mean_anomaly": 322.1992,
        "meta_ephemeris_type": 0,
        "meta_classification_type": "U",
        "meta_norad_cat_id": 43603,
        "meta_element_set_no": 999,
        "meta_rev_at_epoch": 4989,
        "meta_bstar": 0,
        "meta_mean_motion_dot": 1.05e-06,
        "meta_mean_motion_ddot": 0,
        "tle_line1": "1 43603U 18067B   25358.53199434  .00000105  00000+0  00000+0 0  9993",
        "tle_line2": "2 43603  54.1810 186.9270 0005628  37.8730 322.1992  1.86227356 49897"
      },
      "geometry": {
        "type": "Point",
        "coordinates": [
          122.45858375349725,
          -51.30203962346841
        ]
      }
    },
    {
      "type": "Feature",
      "properties": {
        "norad_id": 43622,
        "name": "BEIDOU-3 M13 (C32)",
        "group": "beidou",
        "lat": -36.243824686429456,
        "lon": 39.33418417987168,
        "alt_km": 21515.35199904441,
        "timestamp": "2025-12-26T13:39:19.241260+00:00",
        "meta_object_name": "BEIDOU-3 M13 (C32)",
        "meta_object_id": "2018-072A",
        "meta_epoch": "2025-12-26T02:23:02.012640",
        "meta_mean_motion": 1.86231101,
        "meta_eccentricity": 0.00064409,
        "meta_inclination": 56.4701,
        "meta_ra_of_asc_node": 68.3781,
        "meta_arg_of_pericenter": 297.7459,
        "meta_mean_anomaly": 62.2416,
        "meta_ephemeris_type": 0,
        "meta_classification_type": "U",
        "meta_norad_cat_id": 43622,
        "meta_element_set_no": 999,
        "meta_rev_at_epoch": 4943,
        "meta_bstar": 0,
        "meta_mean_motion_dot": -3e-07,
        "meta_mean_motion_ddot": 0,
        "tle_line1": "1 43622U 18072A   25360.09932885 -.00000030  00000+0  00000+0 0  9997",
        "tle_line2": "2 43622  56.4701  68.3781 0006440 297.7459  62.2416  1.86231101 49436"
      },
      "geometry": {
        "type": "Point",
        "coordinates": [
          39.33418417987168,
          -36.243824686429456
        ]
      }
    },
    {
      "type": "Feature",
      "properties": {
        "norad_id": 43623,
        "name": "BEIDOU-3 M14 (C33)",
        "group": "beidou",
        "lat": 36.196816376886204,
        "lon": 97.3595158478546,
        "alt_km": 21521.5646604283,
        "timestamp": "2025-12-26T13:39:19.241271+00:00",
        "meta_object_name": "BEIDOU-3 M14 (C33)",
        "meta_object_id": "2018-072B",
        "meta_epoch": "2025-12-23T06:43:13.861056",
        "meta_mean_motion": 1.86231163,
        "meta_eccentricity": 0.00035931,
        "meta_inclination": 56.4696,
        "meta_ra_of_asc_node": 68.4654,
        "meta_arg_of_pericenter": 327.0772,
        "meta_mean_anomaly": 32.9541,
        "meta_ephemeris_type": 0,
        "meta_classification_type": "U",
        "meta_norad_cat_id": 43623,
        "meta_element_set_no": 999,
        "meta_rev_at_epoch": 4937,
        "meta_bstar": 0,
        "meta_mean_motion_dot": -2.6e-07,
        "meta_mean_motion_ddot": 0,
        "tle_line1": "1 43623U 18072B   25357.28002154 -.00000026  00000+0  00000+0 0  9997",
        "tle_line2": "2 43623  56.4696  68.4654 0003593 327.0772  32.9541  1.86231163 49375"
      },
      "geometry": {
        "type": "Point",
        "coordinates": [
          97.3595158478546,
          36.196816376886204
        ]
      }
    },
    {
      "type": "Feature",
      "properties": {
        "norad_id": 43647,
        "name": "BEIDOU-3 M16 (C35)",
        "group": "beidou",
        "lat": -45.039763773025875,
        "lon": -100.08444190893361,
        "alt_km": 21529.90446151618,
        "timestamp": "2025-12-26T13:39:19.241283+00:00",
        "meta_object_name": "BEIDOU-3 M16 (C35)",
        "meta_object_id": "2018-078A",
        "meta_epoch": "2025-12-25T14:03:06.964128",
        "meta_mean_motion": 1.86232241,
        "meta_eccentricity": 0.00074973,
        "meta_inclination": 54.2499,
        "meta_ra_of_asc_node": 306.0723,
        "meta_arg_of_pericenter": 20.7001,
        "meta_mean_anomaly": 339.3399,
        "meta_ephemeris_type": 0,
        "meta_classification_type": "U",
        "meta_norad_cat_id": 43647,
        "meta_element_set_no": 999,
        "meta_rev_at_epoch": 4892,
        "meta_bstar": 0,
        "meta_mean_motion_dot": -5.4e-07,
        "meta_mean_motion_ddot": 0,
        "tle_line1": "1 43647U 18078A   25359.58549727 -.00000054  00000+0  00000+0 0  9997",
        "tle_line2": "2 43647  54.2499 306.0723 0007497  20.7001 339.3399  1.86232241 48928"
      },
      "geometry": {
        "type": "Point",
        "coordinates": [
          -100.08444190893361,
          -45.039763773025875
        ]
      }
    },
    {
      "type": "Feature",
      "properties": {
        "norad_id": 43648,
        "name": "BEIDOU-3 M15 (C34)",
        "group": "beidou",
        "lat": -26.076509886736144,
        "lon": 146.64696810017492,
        "alt_km": 21542.385971264597,
        "timestamp": "2025-12-26T13:39:19.241296+00:00",
        "meta_object_name": "BEIDOU-3 M15 (C34)",
        "meta_object_id": "2018-078B",
        "meta_epoch": "2025-12-25T17:09:11.649024",
        "meta_mean_motion": 1.86232344,
        "meta_eccentricity": 0.00040789,
        "meta_inclination": 54.2458,
        "meta_ra_of_asc_node": 306.069,
        "meta_arg_of_pericenter": 19.7485,
        "meta_mean_anomaly": 340.2771,
        "meta_ephemeris_type": 0,
        "meta_classification_type": "U",
        "meta_norad_cat_id": 43648,
        "meta_element_set_no": 999,
        "meta_rev_at_epoch": 4894,
        "meta_bstar": 0,
        "meta_mean_motion_dot": -5.4e-07,
        "meta_mean_motion_ddot": 0,
        "tle_line1": "1 43648U 18078B   25359.71471816 -.00000054  00000+0  00000+0 0  9996",
        "tle_line2": "2 43648  54.2458 306.0690 0004078  19.7485 340.2771  1.86232344 48944"
      },
      "geometry": {
        "type": "Point",
        "coordinates": [
          146.64696810017492,
          -26.076509886736144
        ]
      }
    },
    {
      "type": "Feature",
      "properties": {
        "norad_id": 43683,
        "name": "BEIDOU-3 G1 (C59)",
        "group": "beidou",
        "lat": -0.9914126908305662,
        "lon": 80.06212373251354,
        "alt_km": 35786.41943847096,
        "timestamp": "2025-12-26T13:39:19.241308+00:00",
        "meta_object_name": "BEIDOU-3 G1 (C59)",
        "meta_object_id": "2018-085A",
        "meta_epoch": "2025-12-26T05:08:26.429856",
        "meta_mean_motion": 1.0026556,
        "meta_eccentricity": 0.0001266,
        "meta_inclination": 2.6395,
        "meta_ra_of_asc_node": 102.5209,
        "meta_arg_of_pericenter": 50.4767,
        "meta_mean_anomaly": 159.0004,
        "meta_ephemeris_type": 0,
        "meta_classification_type": "U",
        "meta_norad_cat_id": 43683,
        "meta_element_set_no": 999,
        "meta_rev_at_epoch": 2632,
        "meta_bstar": 0,
        "meta_mean_motion_dot": -2.58e-06,
        "meta_mean_motion_ddot": 0,
        "tle_line1": "1 43683U 18085A   25360.21419479 -.00000258  00000+0  00000+0 0  9993",
        "tle_line2": "2 43683   2.6395 102.5209 0001266  50.4767 159.0004  1.00265560 26321"
      },
      "geometry": {
        "type": "Point",
        "coordinates": [
          80.06212373251354,
          -0.9914126908305662
        ]
      }
    }
  ]
}